[
    {
        "Altitude(m)": 607886.6644583814,
        "Argument of Periapsis(deg)": 0.0,
        "Eccentricity": 0.0,
        "Inclination(deg)": 60.0,
        "Latitude(deg)": 40.998370547526285,
        "Longitude(deg)": -85.02705137817942,
        "Mean Anomaly(deg)": -310.9091,
        "RAAN(deg)": 345.0,
        "Satellite Name": "Test1 1521",
        "Satellite Number": 1521,
        "Semi-Major Axis(m)": 6980739.136638005,
        "Time(s)": 0
    },
    {
        "Altitude(m)": 607987.5785590503,
        "Argument of Periapsis(deg)": 0.00010418945913296404,
        "Eccentricity": 0.0,
        "Inclination(deg)": 60.0,
        "Latitude(deg)": 41.46346094899326,
        "Longitude(deg)": -84.52282458040561,
        "Mean Anomaly(deg)": -310.2889938545382,
        "RAAN(deg)": 344.99957995086027,
        "Satellite Name": "Test1 1521",
        "Satellite Number": 1521,
        "Semi-Major Axis(m)": 6980739.136638005,
        "Time(s)": 10
    }
]